IRIDIUM 63              
1 25286U 98021B   25239.85403445  .00000501  00000+0  16394-3 0  9998
2 25286  86.3946  52.0427 0002295  87.2474 272.8986 14.36589977434137
IRIDIUM 69              
1 25319U 98026A   25239.78547895  .00000498  00000+0  14875-3 0  9997
2 25319  86.3922  65.1441 0003959 120.0780 240.0813 14.41023177433375
IRIDIUM 71              
1 25320U 98026B   25239.78308238  .00000439  00000+0  13003-3 0  9992
2 25320  86.3928  59.8234 0002159 148.3805 211.7525 14.41205592433902
IRIDIUM 73              
1 25344U 98032C   25239.88362836  .00000752  00000+0  18201-3 0  9993
2 25344  86.4444  16.3553 0002865  96.4513 263.7019 14.51784174440965
IRIDIUM 82              
1 25467U 98051A   25239.79925756  .00030471  00000+0  79406-3 0  9991
2 25467  86.3608  74.4269 0080453  25.6744 334.8466 15.35381198434938
